{
 "type": "FeatureCollection",
 "name": "高雄附近活動斷層（依臺灣活動斷層分布圖 2025 數化）",
 "features": [
  {
   "type": "Feature",
   "properties": {
    "NAME": "口宵里斷層"
   },
   "geometry": {
    "type": "LineString",
    "coordinates": [
     [
      120.5013,
      23.2131
     ],
     [
      120.478,
      23.1888
     ],
     [
      120.4604,
      23.1639
     ],
     [
      120.4456,
      23.1346
     ],
     [
      120.4322,
      23.1067
     ],
     [
      120.4208,
      23.079
     ],
     [
      120.4167,
      23.0585
     ]
    ]
   }
  },
  {
   "type": "Feature",
   "properties": {
    "NAME": "新化斷層"
   },
   "geometry": {
    "type": "LineString",
    "coordinates": [
     [
      120.3085,
      23.053
     ],
     [
      120.3351,
      23.059
     ],
     [
      120.3499,
      23.0639
     ]
    ]
   }
  },
  {
   "type": "Feature",
   "properties": {
    "NAME": "後甲里斷層"
   },
   "geometry": {
    "type": "LineString",
    "coordinates": [
     [
      120.2576,
      23.0258
     ],
     [
      120.2503,
      23.0052
     ],
     [
      120.2455,
      22.9721
     ],
     [
      120.2357,
      22.9488
     ],
     [
      120.2215,
      22.9388
     ]
    ]
   }
  },
  {
   "type": "Feature",
   "properties": {
    "NAME": "左鎮斷層"
   },
   "geometry": {
    "type": "LineString",
    "coordinates": [
     [
      120.3844,
      23.0826
     ],
     [
      120.4129,
      23.0607
     ],
     [
      120.4378,
      23.0354
     ],
     [
      120.4602,
      23.0164
     ]
    ]
   }
  },
  {
   "type": "Feature",
   "properties": {
    "NAME": "小岡山斷層"
   },
   "geometry": {
    "type": "LineString",
    "coordinates": [
     [
      120.3368,
      22.8766
     ],
     [
      120.3302,
      22.8548
     ],
     [
      120.3241,
      22.8251
     ],
     [
      120.3208,
      22.8119
     ]
    ]
   }
  },
  {
   "type": "Feature",
   "properties": {
    "NAME": "車瓜林斷層"
   },
   "geometry": {
    "type": "LineString",
    "coordinates": [
     [
      120.4656,
      22.9382
     ],
     [
      120.4593,
      22.9181
     ],
     [
      120.4543,
      22.8893
     ],
     [
      120.4384,
      22.8606
     ],
     [
      120.4231,
      22.8327
     ],
     [
      120.3917,
      22.8017
     ],
     [
      120.3604,
      22.7844
     ]
    ]
   }
  },
  {
   "type": "Feature",
   "properties": {
    "NAME": "旗山斷層"
   },
   "geometry": {
    "type": "LineString",
    "coordinates": [
     [
      120.4846,
      22.8985
     ],
     [
      120.4722,
      22.8744
     ],
     [
      120.4489,
      22.8486
     ],
     [
      120.4228,
      22.8236
     ],
     [
      120.4071,
      22.7942
     ],
     [
      120.3823,
      22.7634
     ],
     [
      120.364,
      22.7357
     ],
     [
      120.3485,
      22.7061
     ]
    ]
   }
  },
  {
   "type": "Feature",
   "properties": {
    "NAME": "潮州斷層"
   },
   "geometry": {
    "type": "LineString",
    "coordinates": [
     [
      120.6992,
      23.1106
     ],
     [
      120.686,
      23.0939
     ],
     [
      120.6652,
      23.0606
     ],
     [
      120.6559,
      23.0341
     ],
     [
      120.6469,
      23.0064
     ],
     [
      120.6513,
      22.9712
     ],
     [
      120.648,
      22.9532
     ],
     [
      120.6455,
      22.9183
     ],
     [
      120.646,
      22.9005
     ],
     [
      120.635,
      22.8644
     ],
     [
      120.6286,
      22.8442
     ],
     [
      120.6248,
      22.8102
     ],
     [
      120.623,
      22.788
     ],
     [
      120.6195,
      22.756
     ],
     [
      120.6187,
      22.7345
     ],
     [
      120.6149,
      22.7025
     ],
     [
      120.6131,
      22.6809
     ],
     [
      120.6034,
      22.6502
     ],
     [
      120.6033,
      22.6297
     ],
     [
      120.6113,
      22.5979
     ],
     [
      120.617,
      22.5754
     ],
     [
      120.6177,
      22.5472
     ],
     [
      120.6181,
      22.522
     ],
     [
      120.6194,
      22.5017
     ],
     [
      120.6128,
      22.4672
     ],
     [
      120.6136,
      22.4384
     ],
     [
      120.6149,
      22.412
     ],
     [
      120.6149,
      22.3936
     ],
     [
      120.6154,
      22.3597
     ]
    ]
   }
  }
 ]
}
